NORAD_CAT_ID,OBJECT_NAME,OBJECT_TYPE,EPOCH,MEAN_MOTION,ECCENTRICITY,INCLINATION,RA_OF_ASC_NODE,ARG_OF_PERICENTER,MEAN_ANOMALY,BSTAR,MEAN_MOTION_DOT,MEAN_MOTION_DDOT,TLE_LINE0,TLE_LINE1,TLE_LINE2,SEMIMAJOR_AXIS,PERIOD,APOGEE,PERIGEE,DECAYED
50158.0,STARLINK-3309,PAYLOAD,2021-12-23 12:00:00,15.98572618,0.006845,53.2177,342.332,171.5057,160.8218,-0.0014674,-0.00929773,0.00028684,0 STARLINK-3309,1 50158U 21125C   21357.50001157 -.00929773  28684-3 -14674-2 0  9991,2 50158  53.2177 342.3320 0068450 171.5057 160.8218 15.98572618   987,6656.515,90.08,323.944,232.816,0.0
50158.0,STARLINK-3309,PAYLOAD,2021-12-24 06:00:00,15.97244368,0.0060266999999999,53.2173,338.4832,174.5215,154.6611,-0.0016633,-0.00915039,0.00027483,0 STARLINK-3309,1 50158U 21125C   21358.25001157 -.00915039  27483-3 -16633-2 0  9997,2 50158  53.2173 338.4832 0060267 174.5215 154.6611 15.97244368  1104,6660.205,90.155,322.209,241.931,0.0
50158.0,STARLINK-3309,PAYLOAD,2021-12-24 14:00:01,15.96652044,0.0057562,53.2174,336.7742,176.0107,270.63,-0.0017246,-0.00899951,0.00026507,0 STARLINK-3309,1 50158U 21125C   21358.58334491 -.00899951  26507-3 -17246-2 0  9994,2 50158  53.2174 336.7742 0057562 176.0107 270.6300 15.96652044  1429,6661.852,90.189,322.064,245.37,0.0
50158.0,STARLINK-3309,PAYLOAD,2021-12-24 22:00:00,15.96047468,0.0054275,53.2177,335.0659,177.3733,26.0265,-0.0017430999999999,-0.00860903,0.00024319,0 STARLINK-3309,1 50158U 21125C   21358.91667824 -.00860903  24319-3 -17431-2 0  9990,2 50158  53.2177 335.0659 0054275 177.3733  26.0265 15.96047468  1216,6663.534000000002,90.223,321.566,249.233,0.0
50158.0,STARLINK-3309,PAYLOAD,2021-12-25 04:00:00,15.95605879,0.0051299,53.2176,333.7887,179.1571,21.3446,-0.0018123,-0.00858018,0.00024064,0 STARLINK-3309,1 50158U 21125C   21359.16667824 -.00858018  24064-3 -18123-2 0  9998,2 50158  53.2176 333.7887 0051299 179.1571  21.3446 15.95605879  1254,6664.764,90.248,320.818,252.439,0.0
50158.0,STARLINK-3309,PAYLOAD,2021-12-25 12:00:00,15.9504539,0.0049029,53.2171,332.0846,180.9697,135.0422,-0.0020083,-0.00909326,0.00026566,0 STARLINK-3309,1 50158U 21125C   21359.50001157 -.00909326  26566-3 -20083-2 0  9993,2 50158  53.2171 332.0846 0049029 180.9697 135.0422 15.95045390  1302,6666.325,90.28,320.874,255.506,0.0
50158.0,STARLINK-3309,PAYLOAD,2021-12-25 14:00:01,15.94899347,0.0048343999999999,53.2173,331.6581,181.1639,253.6182,-0.0020341,-0.00910228,0.00026574,0 STARLINK-3309,1 50158U 21125C   21359.58334491 -.00910228  26574-3 -20341-2 0  9990,2 50158  53.2173 331.6581 0048344 181.1639 253.6182 15.94899347  1581,6666.732,90.288,320.827,256.367,0.0
50158.0,STARLINK-3309,PAYLOAD,2021-12-25 22:00:00,15.94292252,0.0045302,53.2175,329.9544,182.0822,7.3473,-0.0020297,-0.00865384,0.00024113,0 STARLINK-3309,1 50158U 21125C   21359.91667824 -.00865384  24113-3 -20297-2 0  9995,2 50158  53.2175 329.9544 0045302 182.0822   7.3473 15.94292252  1373,6668.424,90.322,320.498,260.08,0.0
50158.0,STARLINK-3309,PAYLOAD,2021-12-26 06:00:02,15.93724834,0.0041757,53.2176,328.2557,184.6419,118.7824,-0.0022292,-0.0090631,0.00026059,0 STARLINK-3309,1 50158U 21125C   21360.25002315 -.00906310  26059-3 -22292-2 0  9995,2 50158  53.2176 328.2557 0041757 184.6419 118.7824 15.93724834  1428,6670.007,90.354,319.724,264.02,0.0
50158.0,STARLINK-3309,PAYLOAD,2021-12-26 12:00:00,15.93283672,0.0040283,53.2173,326.9804,186.5812,111.7669,-0.0022859,-0.00901702,0.00025707,0 STARLINK-3309,1 50158U 21125C   21360.50001157 -.00901702  25707-3 -22859-2 0  9994,2 50158  53.2173 326.9804 0040283 186.5812 111.7669 15.93283672  1460,6671.238,90.379,319.9770000000001,266.22900000000004,0.0
50158.0,STARLINK-3309,PAYLOAD,2021-12-26 14:00:01,15.93145579,0.0039641999999999,53.2175,326.5551,186.8521,229.7352,-0.0023531,-0.0091874,0.00026554,0 STARLINK-3309,1 50158U 21125C   21360.58334491 -.00918740  26554-3 -23531-2 0  9991,2 50158  53.2175 326.5551 0039642 186.8521 229.7352 15.93145579  1747,6671.624,90.387,319.936,267.041,0.0
50158.0,STARLINK-3309,PAYLOAD,2021-12-26 20:00:01,15.92704564,0.0036995,53.2173,325.2803,188.43400000000003,222.6165,-0.0024294,-0.00916936,0.00026345,0 STARLINK-3309,1 50158U 21125C   21360.83334491 -.00916936  26345-3 -24294-2 0  9999,2 50158  53.2173 325.2803 0036995 188.4340 222.6165 15.92704564  1519,6672.855,90.412,319.406,270.034,0.0
50158.0,STARLINK-3309,PAYLOAD,2021-12-26 22:00:00,15.92536908,0.0036382,53.2176,324.8561,188.4142,340.7087,-0.0023305,-0.00870207,0.00023934,0 STARLINK-3309,1 50158U 21125C   21360.91667824 -.00870207  23934-3 -23305-2 0  9990,2 50158  53.2176 324.8561 0036382 188.4142 340.7087 15.92536908  1798,6673.323,90.422,319.467,270.909,0.0
50158.0,STARLINK-3309,PAYLOAD,2021-12-27 04:00:00,15.92099136,0.0033993,53.2173,323.5854,190.9018,332.1534,-0.0024203,-0.00875585,0.00024098,0 STARLINK-3309,1 50158U 21125C   21361.16667824 -.00875585  24098-3 -24203-2 0  9992,2 50158  53.2173 323.5854 0033993 190.9018 332.1534 15.92099136  1576,6674.547,90.447,319.1,273.723,0.0
50158.0,STARLINK-3309,PAYLOAD,2021-12-27 12:00:00,15.91521747,0.0031757,53.2173,321.8897,193.3119,81.0358,-0.0025645,-0.00893293,0.00024843,0 STARLINK-3309,1 50158U 21125C   21361.50001157 -.00893293  24843-3 -25645-2 0  9996,2 50158  53.2173 321.8897 0031757 193.3119  81.0358 15.91521747  1626,6676.161,90.479,319.2270000000001,276.824,0.0
50158.0,STARLINK-3309,PAYLOAD,2021-12-27 14:00:01,15.91390471,0.0031159,53.2175,321.4655,193.8098,198.2467,-0.0026776,-0.00924313,0.00026388,0 STARLINK-3309,1 50158U 21125C   21361.58334491 -.00924313  26388-3 -26776-2 0  9994,2 50158  53.2175 321.4655 0031159 193.8098 198.2467 15.91390471  1904,6676.528,90.487,319.196,277.59,0.0
50158.0,STARLINK-3309,PAYLOAD,2021-12-27 20:00:01,15.90949388,0.0028926,53.2175,320.1939,195.8945,189.0408,-0.0027504,-0.00921917,0.00026153,0 STARLINK-3309,1 50158U 21125C   21361.83334491 -.00921917  26153-3 -27504-2 0  9999,2 50158  53.2175 320.1939 0028926 195.8945 189.0408 15.90949388  1679,6677.762,90.512,318.943,280.311,0.0
50158.0,STARLINK-3309,PAYLOAD,2021-12-27 22:00:00,15.90784926,0.0028257,53.2178,319.7709,196.0717,306.407,-0.0026587,-0.00882344,0.00024124,0 STARLINK-3309,1 50158U 21125C   21361.91667824 -.00882344  24124-3 -26587-2 0  9993,2 50158  53.2178 319.7709 0028257 196.0717 306.4070 15.90784926  1954,6678.222,90.521,318.958,281.217,0.0
50158.0,STARLINK-3309,PAYLOAD,2021-12-28 04:00:00,15.90348547,0.0025831,53.2175,318.5035,199.1202,295.706,-0.0027597,-0.00889861,0.00024394,0 STARLINK-3309,1 50158U 21125C   21362.16667824 -.00889861  24394-3 -27597-2 0  9993,2 50158  53.2175 318.5035 0025831 199.1202 295.7060 15.90348547  1727,6679.444,90.546,318.562,284.055,0.0
50158.0,STARLINK-3309,PAYLOAD,2021-12-28 12:00:00,15.89760596,0.0023863,53.2172,316.8119,201.9029,42.1076,-0.0028445,-0.00885928,0.00024064,0 STARLINK-3309,1 50158U 21125C   21362.50001157 -.00885928  24064-3 -28445-2 0  9999,2 50158  53.2172 316.8119 0023863 201.9029  42.1076 15.89760596  1787,6681.090999999999,90.58,318.899,287.012,0.0
50158.0,STARLINK-3309,PAYLOAD,2021-12-28 14:00:01,15.89632472,0.0023384,53.2174,316.3888,202.7166,158.4735,-0.0029898,-0.00923795,0.00025921,0 STARLINK-3309,1 50158U 21125C   21362.58334491 -.00923795  25921-3 -29898-2 0  9998,2 50158  53.2174 316.3888 0023384 202.7166 158.4735 15.89632472  2062,6681.45,90.587,318.938,287.691,0.0
50158.0,STARLINK-3309,PAYLOAD,2021-12-28 22:00:00,15.89034755,0.0020564,53.2175,314.6988,205.7289,263.7686,-0.0030137,-0.00898484,0.00024514,0 STARLINK-3309,1 50158U 21125C   21362.91667824 -.00898484  24514-3 -30137-2 0  9995,2 50158  53.2175 314.6988 0020564 205.7289 263.7686 15.89034755  1841,6683.125,90.621,318.733,291.247,0.0
50158.0,STARLINK-3309,PAYLOAD,2021-12-29 06:00:02,15.88438836,0.0017741,53.2177,313.0131,211.6888,5.4762,-0.00305,-0.0087834,0.00023401,0 STARLINK-3309,1 50158U 21125C   21363.25002315 -.00878340  23401-3 -30500-2 0  9998,2 50158  53.2177 313.0131 0017741 211.6888   5.4762 15.88438836  1900,6684.795999999999,90.655,318.521,294.802,0.0
50158.0,STARLINK-3309,PAYLOAD,2021-12-29 12:00:00,15.88001128,0.0016416,53.2174,311.7471,216.3807,350.9556,-0.0031382,-0.00882362,0.00023498,0 STARLINK-3309,1 50158U 21125C   21363.50001157 -.00882362  23498-3 -31382-2 0  9993,2 50158  53.2174 311.7471 0016416 216.3807 350.9556 15.88001128  1943,6686.025,90.68,318.865,296.914,0.0
50158.0,STARLINK-3309,PAYLOAD,2021-12-29 14:00:01,15.87870804,0.0016075,53.2176,311.3251,217.5205,106.5342,-0.0032795,-0.00915377,0.00025078,0 STARLINK-3309,1 50158U 21125C   21363.58335648 -.00915377  25078-3 -32795-2 0  9994,2 50158  53.2176 311.3251 0016075 217.5205 106.5342 15.87870804  2227,6686.39,90.687,319.004,297.507,0.0
50158.0,STARLINK-3309,PAYLOAD,2021-12-29 20:11:39,15.87716172,0.0017437999999999,53.2203,310.0222,218.1891,141.7901,-0.0015970999999999,-0.00445967,7.1245e-05,0 STARLINK-3309,1 50158U 21125C   21363.84142605 -.00445967  71245-4 -15971-2 0  9990,2 50158  53.2203 310.0222 0017438 218.1891 141.7901 15.87716172  5158,6686.825,90.696,320.35,297.029,0.0
50158.0,STARLINK-3309,PAYLOAD,2021-12-29 22:00:00,15.87286271,0.0013652,53.2176,309.6399,225.2708,204.9082,-0.0033947,-0.00839078,0.0,0 STARLINK-3309,1 50158U 21125C   21363.91667824 -.00839078  00000-0 -33947-2 0  9993,2 50158  53.2176 309.6399 0013652 225.2708 204.9082 15.87286271  2001,6688.031999999997,90.721,319.027,300.766,0.0
50158.0,STARLINK-3309,PAYLOAD,2021-12-30 06:00:00,15.86591789,0.0011729,53.2181,307.9587,235.2645,300.45,-0.0028062,-0.00680027,0.0,0 STARLINK-3309,1 50158U 21125C   21364.25001157 -.00680027  00000-0 -28062-2 0  9992,2 50158  53.2181 307.9587 0011729 235.2645 300.4500 15.86591789  2066,6689.983,90.761,319.695,304.002,0.0
50158.0,STARLINK-3309,PAYLOAD,2021-12-30 14:00:01,15.85976941,0.0009983,53.2181,306.2751,249.2325,31.2847,-0.0027528,-0.00648132,0.0,0 STARLINK-3309,1 50158U 21125C   21364.58334491 -.00648132  00000-0 -27528-2 0  9995,2 50158  53.2181 306.2751 0009983 249.2325  31.2847 15.85976941  2384,6691.712,90.796,320.258,306.897,0.0
